{
  "norad_id": 62564,
  "name": "STARLINK-11540 [DTC]",
  "history": [
    {
      "epoch": "2026-03-28T17:17:28.378176Z",
      "apogee_km": 356.3375118293843,
      "perigee_km": 355.98665484714184,
      "latitude_deg": -1.0230340740107157e-05,
      "longitude_deg": -60.15921418122878,
      "height_km": 356.0830040810961,
      "semi_major_axis_km": 6734.299083338263,
      "eccentricity": 2.605e-05,
      "inclination_deg": 42.9963,
      "raan_deg": 25.3459,
      "arg_perigee_deg": 211.1808,
      "mean_anomaly_deg": 148.9044,
      "mean_motion_rev_day": 15.70956507
    },
    {
      "epoch": "2026-03-29T03:58:23.608992Z",
      "apogee_km": 357.4059499091236,
      "perigee_km": 355.2320675095116,
      "latitude_deg": 2.239228193344268e-05,
      "longitude_deg": 136.48669768135878,
      "height_km": 355.22020742371046,
      "semi_major_axis_km": 6734.456008709317,
      "eccentricity": 0.0001614,
      "inclination_deg": 42.9973,
      "raan_deg": 22.6606,
      "arg_perigee_deg": 323.2299,
      "mean_anomaly_deg": 36.8458,
      "mean_motion_rev_day": 15.70901598
    },
    {
      "epoch": "2026-03-30T02:51:48.190464Z",
      "apogee_km": 357.3968089284044,
      "perigee_km": 355.64189217657804,
      "latitude_deg": 4.7726416620255476e-05,
      "longitude_deg": 146.44473692873544,
      "height_km": 355.4350789682912,
      "semi_major_axis_km": 6734.656350552491,
      "eccentricity": 0.00013029,
      "inclination_deg": 42.9985,
      "raan_deg": 16.9111,
      "arg_perigee_deg": 347.2025,
      "mean_anomaly_deg": 12.881,
      "mean_motion_rev_day": 15.70831502
    },
    {
      "epoch": "2026-03-30T12:01:10.137792Z",
      "apogee_km": 356.6345989720239,
      "perigee_km": 355.7820308551554,
      "latitude_deg": 1.9454077051618253e-05,
      "longitude_deg": 6.42803249964266,
      "height_km": 355.56969078354007,
      "semi_major_axis_km": 6734.345314913589,
      "eccentricity": 6.33e-05,
      "inclination_deg": 42.9978,
      "raan_deg": 14.6119,
      "arg_perigee_deg": 16.1841,
      "mean_anomaly_deg": 343.9047,
      "mean_motion_rev_day": 15.7094033
    }
  ]
}